{"type": "FeatureCollection", "features": [ {"type": "Feature", "properties": {"norad_id": 30134, "name": "FENGYUN 1C DEB", "group": "fengyun-1c-debris", "lat": 81.01606745470501, "lon": -60.46756078761969, "alt_km": 835.4412720534137, "timestamp": "2025-12-22T04:03:39.443237+00:00", "meta": {"OBJECT_NAME": "FENGYUN 1C DEB", "OBJECT_ID": "1999-025SP", "EPOCH": "2025-12-21T14:39:28.819008", "MEAN_MOTION": 14.13362644, "ECCENTRICITY": 0.0019386, "INCLINATION": 98.6929, "RA_OF_ASC_NODE": 14.3893, "ARG_OF_PERICENTER": 158.573, "MEAN_ANOMALY": 329.4893, "EPHEMERIS_TYPE": 0, "CLASSIFICATION_TYPE": "U", "NORAD_CAT_ID": 30134, "ELEMENT_SET_NO": 999, "REV_AT_EPOCH": 97371, "BSTAR": 0.00037721, "MEAN_MOTION_DOT": 6.67e-06, "MEAN_MOTION_DDOT": 0}, "tle": {"line1": "1 30134U 99025SP  25355.61075022  .00000667  00000+0  37721-3 0  9990", "line2": "2 30134  98.6929  14.3893 0019386 158.5730 329.4893 14.13362644973719"}}, "geometry": {"type": "Point", "coordinates": [-60.46756078761969, 81.01606745470501]}}, {"type": "Feature", "properties": {"norad_id": 30136, "name": "FENGYUN 1C DEB", "group": "fengyun-1c-debris", "lat": -29.486058985852843, "lon": 63.47548708312286, "alt_km": 1007.4075133712358, "timestamp": "2025-12-22T04:03:39.443260+00:00", "meta": {"OBJECT_NAME": "FENGYUN 1C DEB", "OBJECT_ID": "1999-025SR", "EPOCH": "2025-12-21T12:09:48.254400", "MEAN_MOTION": 13.95334604, "ECCENTRICITY": 0.01294381, "INCLINATION": 98.5565, "RA_OF_ASC_NODE": 247.744, "ARG_OF_PERICENTER": 45.3467, "MEAN_ANOMALY": 78.5223, "EPHEMERIS_TYPE": 0, "CLASSIFICATION_TYPE": "U", "NORAD_CAT_ID": 30136, "ELEMENT_SET_NO": 999, "REV_AT_EPOCH": 96213, "BSTAR": 0.00045071336, "MEAN_MOTION_DOT": 6.15e-06, "MEAN_MOTION_DDOT": 0}, "tle": {"line1": "1 30136U 99025SR  25355.50680850  .00000615  00000+0  45071-3 0  9991", "line2": "2 30136  98.5565 247.7440 0129438  45.3467  78.5223 13.95334604962133"}}, "geometry": {"type": "Point", "coordinates": [63.47548708312286, -29.486058985852843]}}, {"type": "Feature", "properties": {"norad_id": 30138, "name": "FENGYUN 1C DEB", "group": "fengyun-1c-debris", "lat": 55.33925468496129, "lon": 36.45164341022746, "alt_km": 811.6645730406044, "timestamp": "2025-12-22T04:03:39.443271+00:00", "meta": {"OBJECT_NAME": "FENGYUN 1C DEB", "OBJECT_ID": "1999-025ST", "EPOCH": "2025-12-21T14:52:18.108192", "MEAN_MOTION": 14.20054588, "ECCENTRICITY": 0.0020342, "INCLINATION": 98.7584, "RA_OF_ASC_NODE": 48.7911, "ARG_OF_PERICENTER": 114.0767, "MEAN_ANOMALY": 14.6661, "EPHEMERIS_TYPE": 0, "CLASSIFICATION_TYPE": "U", "NORAD_CAT_ID": 30138, "ELEMENT_SET_NO": 999, "REV_AT_EPOCH": 97527, "BSTAR": 0.00060866, "MEAN_MOTION_DOT": 1.255e-05, "MEAN_MOTION_DDOT": 0}, "tle": {"line1": "1 30138U 99025ST  25355.61965403  .00001255  00000+0  60866-3 0  9995", "line2": "2 30138  98.7584  48.7911 0020342 114.0767  14.6661 14.20054588975276"}}, "geometry": {"type": "Point", "coordinates": [36.45164341022746, 55.33925468496129]}}, {"type": "Feature", "properties": {"norad_id": 30139, "name": "FENGYUN 1C DEB", "group": "fengyun-1c-debris", "lat": 59.4013750814819, "lon": -175.3955241956151, "alt_km": 962.4773833318668, "timestamp": "2025-12-22T04:03:39.443281+00:00", "meta": {"OBJECT_NAME": "FENGYUN 1C DEB", "OBJECT_ID": "1999-025SU", "EPOCH": "2025-12-20T12:41:13.934400", "MEAN_MOTION": 14.03677489, "ECCENTRICITY": 0.0130916, "INCLINATION": 98.3653, "RA_OF_ASC_NODE": 197.5016, "ARG_OF_PERICENTER": 268.3336, "MEAN_ANOMALY": 146.0114, "EPHEMERIS_TYPE": 0, "CLASSIFICATION_TYPE": "U", "NORAD_CAT_ID": 30139, "ELEMENT_SET_NO": 999, "REV_AT_EPOCH": 96359, "BSTAR": 0.00074815, "MEAN_MOTION_DOT": 1.228e-05, "MEAN_MOTION_DDOT": 0}, "tle": {"line1": "1 30139U 99025SU  25354.52863350  .00001228  00000+0  74815-3 0  9992", "line2": "2 30139  98.3653 197.5016 0130916 268.3336 146.0114 14.03677489963590"}}, "geometry": {"type": "Point", "coordinates": [-175.3955241956151, 59.4013750814819]}}, {"type": "Feature", "properties": {"norad_id": 30140, "name": "FENGYUN 1C DEB", "group": "fengyun-1c-debris", "lat": -73.55500626418869, "lon": -152.73363005806547, "alt_km": 803.4120952817093, "timestamp": "2025-12-22T04:03:39.443292+00:00", "meta": {"OBJECT_NAME": "FENGYUN 1C DEB", "OBJECT_ID": "1999-025SV", "EPOCH": "2025-12-20T22:58:02.462016", "MEAN_MOTION": 14.20787968, "ECCENTRICITY": 0.0040948, "INCLINATION": 98.8258, "RA_OF_ASC_NODE": 57.8166, "ARG_OF_PERICENTER": 285.4592, "MEAN_ANOMALY": 253.8839, "EPHEMERIS_TYPE": 0, "CLASSIFICATION_TYPE": "U", "NORAD_CAT_ID": 30140, "ELEMENT_SET_NO": 999, "REV_AT_EPOCH": 97260, "BSTAR": 0.00086556, "MEAN_MOTION_DOT": 1.84e-05, "MEAN_MOTION_DDOT": 0}, "tle": {"line1": "1 30140U 99025SV  25354.95697294  .00001840  00000+0  86556-3 0  9998", "line2": "2 30140  98.8258  57.8166 0040948 285.4592 253.8839 14.20787968972607"}}, "geometry": {"type": "Point", "coordinates": [-152.73363005806547, -73.55500626418869]}}, {"type": "Feature", "properties": {"norad_id": 30141, "name": "FENGYUN 1C DEB", "group": "fengyun-1c-debris", "lat": -77.19180758471687, "lon": -37.08775446225557, "alt_km": 727.6214511269345, "timestamp": "2025-12-22T04:03:39.443302+00:00", "meta": {"OBJECT_NAME": "FENGYUN 1C DEB", "OBJECT_ID": "1999-025SW", "EPOCH": "2025-12-21T11:53:26.556000", "MEAN_MOTION": 14.5172676, "ECCENTRICITY": 0.001943, "INCLINATION": 99.0153, "RA_OF_ASC_NODE": 277.8965, "ARG_OF_PERICENTER": 12.7141, "MEAN_ANOMALY": 347.4538, "EPHEMERIS_TYPE": 0, "CLASSIFICATION_TYPE": "U", "NORAD_CAT_ID": 30141, "ELEMENT_SET_NO": 999, "REV_AT_EPOCH": 98371, "BSTAR": 0.0020623, "MEAN_MOTION_DOT": 8.261e-05, "MEAN_MOTION_DDOT": 0}, "tle": {"line1": "1 30141U 99025SW  25355.49544625  .00008261  00000+0  20623-2 0  9994", "line2": "2 30141  99.0153 277.8965 0019430  12.7141 347.4538 14.51726760983716"}}, "geometry": {"type": "Point", "coordinates": [-37.08775446225557, -77.19180758471687]}}, {"type": "Feature", "properties": {"norad_id": 30142, "name": "FENGYUN 1C DEB", "group": "fengyun-1c-debris", "lat": 5.2338351030962675, "lon": -107.06593107831253, "alt_km": 880.5029300262631, "timestamp": "2025-12-22T04:03:39.443312+00:00", "meta": {"OBJECT_NAME": "FENGYUN 1C DEB", "OBJECT_ID": "1999-025SX", "EPOCH": "2025-12-21T17:00:38.351808", "MEAN_MOTION": 14.10527122, "ECCENTRICITY": 0.0101982, "INCLINATION": 99.128, "RA_OF_ASC_NODE": 71.6228, "ARG_OF_PERICENTER": 282.771, "MEAN_ANOMALY": 76.2079, "EPHEMERIS_TYPE": 0, "CLASSIFICATION_TYPE": "U", "NORAD_CAT_ID": 30142, "ELEMENT_SET_NO": 999, "REV_AT_EPOCH": 96425, "BSTAR": 0.0013513, "MEAN_MOTION_DOT": 2.48e-05, "MEAN_MOTION_DDOT": 0}, "tle": {"line1": "1 30142U 99025SX  25355.70877722  .00002480  00000+0  13513-2 0  9993", "line2": "2 30142  99.1280  71.6228 0101982 282.7710  76.2079 14.10527122964257"}}, "geometry": {"type": "Point", "coordinates": [-107.06593107831253, 5.2338351030962675]}}, {"type": "Feature", "properties": {"norad_id": 30143, "name": "FENGYUN 1C DEB", "group": "fengyun-1c-debris", "lat": -16.86572543593049, "lon": -3.5953452700377455, "alt_km": 860.2994101600316, "timestamp": "2025-12-22T04:03:39.443322+00:00", "meta": {"OBJECT_NAME": "FENGYUN 1C DEB", "OBJECT_ID": "1999-025SY", "EPOCH": "2025-12-21T02:02:40.100640", "MEAN_MOTION": 14.02609652, "ECCENTRICITY": 0.01034893, "INCLINATION": 98.7346, "RA_OF_ASC_NODE": 178.0364, "ARG_OF_PERICENTER": 267.6186, "MEAN_ANOMALY": 219.8109, "EPHEMERIS_TYPE": 0, "CLASSIFICATION_TYPE": "U", "NORAD_CAT_ID": 30143, "ELEMENT_SET_NO": 999, "REV_AT_EPOCH": 96336, "BSTAR": 0.00078525746, "MEAN_MOTION_DOT": 1.226e-05, "MEAN_MOTION_DDOT": 0}, "tle": {"line1": "1 30143U 99025SY  25355.08518635  .00001226  00000+0  78526-3 0  9993", "line2": "2 30143  98.7346 178.0364 0103489 267.6186 219.8109 14.02609652963362"}}, "geometry": {"type": "Point", "coordinates": [-3.5953452700377455, -16.86572543593049]}}, {"type": "Feature", "properties": {"norad_id": 30144, "name": "FENGYUN 1C DEB", "group": "fengyun-1c-debris", "lat": -60.20370900542723, "lon": 152.5959192729141, "alt_km": 845.0957973414907, "timestamp": "2025-12-22T04:03:39.443333+00:00", "meta": {"OBJECT_NAME": "FENGYUN 1C DEB", "OBJECT_ID": "1999-025SZ", "EPOCH": "2025-12-20T11:51:00.005184", "MEAN_MOTION": 13.91828778, "ECCENTRICITY": 0.01255831, "INCLINATION": 99.0099, "RA_OF_ASC_NODE": 347.054, "ARG_OF_PERICENTER": 269.5648, "MEAN_ANOMALY": 221.971, "EPHEMERIS_TYPE": 0, "CLASSIFICATION_TYPE": "U", "NORAD_CAT_ID": 30144, "ELEMENT_SET_NO": 999, "REV_AT_EPOCH": 95948, "BSTAR": 0.00040974688, "MEAN_MOTION_DOT": 5.12e-06, "MEAN_MOTION_DDOT": 0}, "tle": {"line1": "1 30144U 99025SZ  25354.49375006  .00000512  00000+0  40975-3 0  9995", "line2": "2 30144  99.0099 347.0540 0125583 269.5648 221.9710 13.91828778959488"}}, "geometry": {"type": "Point", "coordinates": [152.5959192729141, -60.20370900542723]}}, {"type": "Feature", "properties": {"norad_id": 30145, "name": "FENGYUN 1C DEB", "group": "fengyun-1c-debris", "lat": -9.243023738753795, "lon": 107.62172740729156, "alt_km": 892.7969378933312, "timestamp": "2025-12-22T04:03:39.443344+00:00", "meta": {"OBJECT_NAME": "FENGYUN 1C DEB", "OBJECT_ID": "1999-025TA", "EPOCH": "2025-12-21T20:09:48.437280", "MEAN_MOTION": 14.14113853, "ECCENTRICITY": 0.00905, "INCLINATION": 99.2701, "RA_OF_ASC_NODE": 105.7575, "ARG_OF_PERICENTER": 123.7261, "MEAN_ANOMALY": 353.5241, "EPHEMERIS_TYPE": 0, "CLASSIFICATION_TYPE": "U", "NORAD_CAT_ID": 30145, "ELEMENT_SET_NO": 999, "REV_AT_EPOCH": 96324, "BSTAR": 0.0022811, "MEAN_MOTION_DOT": 4.472e-05, "MEAN_MOTION_DDOT": 0}, "tle": {"line1": "1 30145U 99025TA  25355.84014395  .00004472  00000+0  22811-2 0  9994", "line2": "2 30145  99.2701 105.7575 0090500 123.7261 353.5241 14.14113853963247"}}, "geometry": {"type": "Point", "coordinates": [107.62172740729156, -9.243023738753795]}}]}